STARLINK-34570          
1 64860U 25152U   25204.58183362 -.00337636  41843-4 -80918-3 0  9991
2 64860  97.5993  56.0836 0000473  27.4208 332.7092 15.96449183   717
STARLINK-34651          
1 64861U 25152V   25204.64429041 -.00328500  39786-4 -78755-3 0  9995
2 64861  97.5990  56.1549 0000978 110.2653 249.8728 15.96440644   720
STARLINK-34684          
1 64862U 25152W   25204.51865718 -.00261352  26452-4 -61151-3 0  9996
2 64862  97.5991  56.0141 0000895 117.4999 242.6367 15.96873901   703
STARLINK-34690          
1 64863U 25152X   25204.64377696 -.00331331  40532-4 -78370-3 0  9995
2 64863  97.5993  56.1559 0000468  29.2059 330.9243 15.96690211   720
STARLINK-34628          
1 64864U 25152Y   25204.64351746 -.00408850  59790-4 -96199-3 0  9990
2 64864  97.5991  56.1561 0000825  91.1366 269.0004 15.96799436   724
STARLINK-34544          
1 64865U 25152Z   25204.58061141 -.00282177  30424-4 -65170-3 0  9991
2 64865  97.5989  56.0855 0001019  95.7359 264.4033 15.97117176   711
2025-153A               
1 64866U 25153A   25204.16735413  .00000048  00000+0  00000+0 0  9999
2 64866   9.6145  90.6957 1964411 181.0910   6.3828  7.28141034    39
2025-153B               
1 64867U 25153B   25204.16729250  .00000048  00000+0  00000+0 0  9992
2 64867   9.6872  90.6085 1945468 181.1298   6.3330  7.30990734    29
